[{"bdId":"131","childs":[],"id":"5473ccd7b8ce043a64108c46","pinyin":"bei jing shi","name":"北京市","lng":116.39564514160156,"lat":39.92998504638672},{"bdId":"289","childs":[],"id":"5473ccd7b8ce043a64108c4d","pinyin":"shang hai shi","name":"上海市","lng":121.48789978027344,"lat":31.249160766601563},{"bdId":"332","childs":[],"id":"546f2daab8ce0440eddb2aff","pinyin":"tian jin shi","name":"天津市","lng":117.2108154296875,"lat":39.14392852783203},{"bdId":"132","childs":[],"id":"5473ccd6b8ce043a64108c08","pinyin":"zhong qing shi","name":"重庆市","lng":106.53063201904297,"lat":29.544605255126953},{"bdId":"251","childs":[{"bdId":"127","childs":[],"id":"5473ccdeb8ce043a64108d7e","pinyin":"he fei shi","name":"合肥市","lng":117.28269958496094,"lat":31.866941452026367},{"bdId":"126","childs":[],"id":"5473ccc9b8ce043a641088e8","pinyin":"bang bu shi","name":"蚌埠市","lng":117.3570785522461,"lat":32.929500579833984},{"bdId":"130","childs":[],"id":"5473ccc9b8ce043a641088ea","pinyin":"an qing shi","name":"安庆市","lng":117.0587387084961,"lat":30.53789710998535},{"bdId":"299","childs":[],"id":"5473ccc9b8ce043a641088c0","pinyin":"chi zhou shi","name":"池州市","lng":117.49447631835938,"lat":30.660018920898438},{"bdId":"128","childs":[],"id":"5473ccc9b8ce043a641088eb","pinyin":"fu yang shi","name":"阜阳市","lng":115.82093048095703,"lat":32.90121078491211},{"bdId":"189","childs":[],"id":"5473ccdeb8ce043a64108d7c","pinyin":"chu zhou shi","name":"滁州市","lng":118.32456970214844,"lat":32.317352294921875},{"bdId":"188","childs":[],"id":"5473ccdeb8ce043a64108d7a","pinyin":"bo zhou shi","name":"亳州市","lng":115.78792572021484,"lat":33.871212005615234},{"bdId":"253","childs":[],"id":"5473ccdeb8ce043a64108d7b","pinyin":"huai bei shi","name":"淮北市","lng":116.79145050048828,"lat":33.96002197265625},{"bdId":"252","childs":[],"id":"5473ccc8b8ce043a641088b2","pinyin":"huang shan shi","name":"黄山市","lng":118.29357147216797,"lat":29.734434127807617},{"bdId":"250","childs":[],"id":"5473ccc9b8ce043a641088e9","pinyin":"huai nan shi","name":"淮南市","lng":117.01863861083984,"lat":32.6428108215332},{"bdId":"298","childs":[],"id":"5473ccc9b8ce043a641088ec","pinyin":"liu an shi","name":"六安市","lng":116.5052490234375,"lat":31.755558013916016},{"bdId":"358","childs":[],"id":"5473ccdfb8ce043a64108d8e","pinyin":"ma an shan shi","name":"马鞍山市","lng":118.48977661132813,"lat":31.733043670654297},{"bdId":"370","childs":[],"id":"5473ccc9b8ce043a641088e7","pinyin":"su zhou shi","name":"宿州市","lng":116.98869323730469,"lat":33.63677215576172},{"bdId":"337","childs":[],"id":"5473ccdfb8ce043a64108d95","pinyin":"tong ling shi","name":"铜陵市","lng":117.81942749023438,"lat":30.940929412841797},{"bdId":"129","childs":[],"id":"5473ccdfb8ce043a64108d90","pinyin":"wu hu shi","name":"芜湖市","lng":118.38410949707031,"lat":31.36602020263672},{"bdId":"190","childs":[],"id":"5473ccdeb8ce043a64108d89","pinyin":"xuan cheng shi","name":"宣城市","lng":118.7520980834961,"lat":30.951642990112305}],"id":"","pinyin":"an hui sheng","name":"安徽省","lng":0.0,"lat":0.0},{"bdId":"6","childs":[{"bdId":"300","childs":[],"id":"5473ccc8b8ce043a641088a4","pinyin":"fu zhou shi","name":"福州市","lng":119.3302230834961,"lat":26.0471248626709},{"bdId":"193","childs":[],"id":"5479360cb8ce047cad40b1df","pinyin":"long yan shi","name":"龙岩市","lng":117.01799774169922,"lat":25.078685760498047},{"bdId":"133","childs":[],"id":"5473ccc8b8ce043a641088a5","pinyin":"nan ping shi","name":"南平市","lng":118.181884765625,"lat":26.643627166748047},{"bdId":"192","childs":[],"id":"5473ccc7b8ce043a6410887e","pinyin":"ning de shi","name":"宁德市","lng":119.54208374023438,"lat":26.656526565551758},{"bdId":"195","childs":[],"id":"5473ccc7b8ce043a64108880","pinyin":"pu tian shi","name":"莆田市","lng":119.07772827148438,"lat":25.448450088500977},{"bdId":"134","childs":[],"id":"5473ccc8b8ce043a641088a3","pinyin":"quan zhou shi","name":"泉州市","lng":118.6003646850586,"lat":24.901653289794922},{"bdId":"254","childs":[],"id":"5473ccc8b8ce043a641088a8","pinyin":"san ming shi","name":"三明市","lng":117.64219665527344,"lat":26.270835876464844},{"bdId":"194","childs":[],"id":"5473ccdfb8ce043a64108d97","pinyin":"sha men shi","name":"厦门市","lng":118.10388946533203,"lat":24.48923110961914},{"bdId":"255","childs":[],"id":"5473ccc8b8ce043a641088a7","pinyin":"zhang zhou shi","name":"漳州市","lng":117.67620086669922,"lat":24.517065048217773}],"id":"","pinyin":"fu jian sheng","name":"福建省","lng":0.0,"lat":0.0},{"bdId":"7","childs":[{"bdId":"36","childs":[],"id":"5473ccd4b8ce043a64108b7c","pinyin":"lan zhou shi","name":"兰州市","lng":103.82330322265625,"lat":36.06422424316406},{"bdId":"35","childs":[],"id":"54789403b8ce045e033aeb87","pinyin":"bai yin shi","name":"白银市","lng":104.1712417602539,"lat":36.54668045043945},{"bdId":"136","childs":[],"id":"5473ccd8b8ce043a64108c6f","pinyin":"ding xi shi","name":"定西市","lng":104.62664031982422,"lat":35.586055755615234},{"bdId":"247","childs":[],"id":"5473cce2b8ce043a64108e20","pinyin":"gan nan zang zu zi zhi zhou","name":"甘南藏族自治州","lng":102.91778564453125,"lat":34.989742279052734},{"bdId":"33","childs":[],"id":"5473ccd8b8ce043a64108c69","pinyin":"jia yu guan shi","name":"嘉峪关市","lng":98.21117401123047,"lat":39.82548904418945},{"bdId":"34","childs":[],"id":"5473ccd4b8ce043a64108b77","pinyin":"jin chang shi","name":"金昌市","lng":102.2081298828125,"lat":38.51607131958008},{"bdId":"37","childs":[],"id":"547bcee1b8ce040bfde6318e","pinyin":"jiu quan shi","name":"酒泉市","lng":98.50841522216797,"lat":39.74147415161133},{"bdId":"182","childs":[],"id":"5473ccd4b8ce043a64108b78","pinyin":"lin xia hui zu zi zhi zhou","name":"临夏回族自治州","lng":103.21524810791016,"lat":35.598514556884766},{"bdId":"256","childs":[],"id":"5473ccd8b8ce043a64108c6e","pinyin":"long nan shi","name":"陇南市","lng":104.9345703125,"lat":33.39448165893555},{"bdId":"359","childs":[],"id":"5473ccd4b8ce043a64108b79","pinyin":"ping liang shi","name":"平凉市","lng":106.68891143798828,"lat":35.55010986328125},{"bdId":"135","childs":[],"id":"546f585eb8ce041e1b44d784","pinyin":"qing yang shi","name":"庆阳市","lng":107.64422607421875,"lat":35.72679901123047},{"bdId":"118","childs":[],"id":"5473ccd4b8ce043a64108b7b","pinyin":"wu wei shi","name":"武威市","lng":102.64014434814453,"lat":37.933170318603516},{"bdId":"196","childs":[],"id":"546f585eb8ce041e1b44d786","pinyin":"tian shui shi","name":"天水市","lng":105.73693084716797,"lat":34.584320068359375},{"bdId":"117","childs":[],"id":"5473ccd4b8ce043a64108b90","pinyin":"zhang ye shi","name":"张掖市","lng":100.45989227294922,"lat":38.9393196105957}],"id":"","pinyin":"gan su sheng","name":"甘肃省","lng":0.0,"lat":0.0},{"bdId":"120","childs":[{"bdId":"257","childs":[],"id":"5473ccdbb8ce043a64108cf3","pinyin":"guang zhou shi","name":"广州市","lng":113.30764770507813,"lat":23.12004852294922},{"bdId":"201","childs":[],"id":"5473ccdcb8ce043a64108d1d","pinyin":"chao zhou shi","name":"潮州市","lng":116.63007354736328,"lat":23.66181182861328},{"bdId":"119","childs":[],"id":"5473ccceb8ce043a64108a23","pinyin":"dong guan shi","name":"东莞市","lng":113.76343536376953,"lat":23.04302406311035},{"bdId":"138","childs":[],"id":"5473cce2b8ce043a64108e14","pinyin":"fo shan shi","name":"佛山市","lng":113.13402557373047,"lat":23.03509521484375},{"bdId":"200","childs":[],"id":"5473ccceb8ce043a64108a24","pinyin":"he yuan shi","name":"河源市","lng":114.7137222290039,"lat":23.757251739501953},{"bdId":"302","childs":[],"id":"5473ccdbb8ce043a64108cef","pinyin":"jiang men shi","name":"江门市","lng":113.078125,"lat":22.575117111206055},{"bdId":"259","childs":[],"id":"5473ccdcb8ce043a64108cf4","pinyin":"jie yang shi","name":"揭阳市","lng":116.37950134277344,"lat":23.54800033569336},{"bdId":"139","childs":[],"id":"5473ccdbb8ce043a64108cee","pinyin":"mao ming shi","name":"茂名市","lng":110.93124389648438,"lat":21.66822624206543},{"bdId":"141","childs":[],"id":"5473ccceb8ce043a64108a25","pinyin":"mei zhou shi","name":"梅州市","lng":116.12640380859375,"lat":24.3045711517334},{"bdId":"197","childs":[],"id":"5473ccceb8ce043a64108a2b","pinyin":"qing yuan shi","name":"清远市","lng":113.040771484375,"lat":23.698469161987305},{"bdId":"339","childs":[],"id":"5473ccceb8ce043a64108a27","pinyin":"shan wei shi","name":"汕尾市","lng":115.3729248046875,"lat":22.778730392456055},{"bdId":"303","childs":[],"id":"5473ccdbb8ce043a64108cf0","pinyin":"shan tou shi","name":"汕头市","lng":116.72865295410156,"lat":23.383909225463867},{"bdId":"137","childs":[],"id":"547aec00b8ce043deccfedd7","pinyin":"shao guan shi","name":"韶关市","lng":113.5944595336914,"lat":24.802959442138672},{"bdId":"340","childs":[],"id":"5473ccdcb8ce043a64108cf5","pinyin":"shen zhen shi","name":"深圳市","lng":114.02597045898438,"lat":22.546052932739258},{"bdId":"199","childs":[],"id":"5479360db8ce047cad40b220","pinyin":"yang jiang shi","name":"阳江市","lng":111.97701263427734,"lat":21.871517181396484},{"bdId":"258","childs":[],"id":"5473ccdbb8ce043a64108ced","pinyin":"yun fu shi","name":"云浮市","lng":112.05094909667969,"lat":22.93797492980957},{"bdId":"198","childs":[],"id":"547aec00b8ce043deccfedd5","pinyin":"zhan jiang shi","name":"湛江市","lng":110.36506652832031,"lat":21.257463455200195},{"bdId":"338","childs":[],"id":"5473ccceb8ce043a64108a2d","pinyin":"zhao qing shi","name":"肇庆市","lng":112.47965240478516,"lat":23.078662872314453},{"bdId":"187","childs":[],"id":"5473ccceb8ce043a64108a26","pinyin":"zhong shan shi","name":"中山市","lng":113.42205810546875,"lat":22.545177459716797},{"bdId":"140","childs":[],"id":"5473ccdbb8ce043a64108cf1","pinyin":"zhu hai shi","name":"珠海市","lng":113.56244659423828,"lat":22.256914138793945}],"id":"","pinyin":"guang dong sheng","name":"广东省","lng":0.0,"lat":0.0},{"bdId":"9","childs":[{"bdId":"203","childs":[],"id":"5478687db8ce04201a8512b1","pinyin":"bai se shi","name":"百色市","lng":106.63182067871094,"lat":23.901512145996094},{"bdId":"142","childs":[],"id":"5473ccd0b8ce043a64108abe","pinyin":"gui lin shi","name":"桂林市","lng":110.26091766357422,"lat":25.262901306152344},{"bdId":"295","childs":[],"id":"5473ccd0b8ce043a64108ac4","pinyin":"bei hai shi","name":"北海市","lng":109.12262725830078,"lat":21.47271728515625},{"bdId":"144","childs":[],"id":"5473ccd0b8ce043a64108acb","pinyin":"chong zuo shi","name":"崇左市","lng":107.3573226928711,"lat":22.415454864501953},{"bdId":"341","childs":[],"id":"5473ccdab8ce043a64108cb7","pinyin":"gui gang shi","name":"贵港市","lng":109.61370849609375,"lat":23.10337257385254},{"bdId":"204","childs":[],"id":"5473ccd0b8ce043a64108ac5","pinyin":"fang cheng gang shi","name":"防城港市","lng":108.35179138183594,"lat":21.617399215698242},{"bdId":"143","childs":[],"id":"5473ccdab8ce043a64108cb2","pinyin":"he chi shi","name":"河池市","lng":108.0699462890625,"lat":24.699520111083984},{"bdId":"260","childs":[],"id":"5478687db8ce04201a8512b2","pinyin":"he zhou shi","name":"贺州市","lng":111.55259704589844,"lat":24.411052703857422},{"bdId":"305","childs":[],"id":"5473ccd0b8ce043a64108ac3","pinyin":"liu zhou shi","name":"柳州市","lng":109.42240142822266,"lat":24.32905387878418},{"bdId":"202","childs":[],"id":"5473ccd0b8ce043a64108ac2","pinyin":"lai bin shi","name":"来宾市","lng":109.23181915283203,"lat":23.741165161132813},{"bdId":"261","childs":[],"id":"5473ccd0b8ce043a64108ace","pinyin":"nan ning shi","name":"南宁市","lng":108.29723358154297,"lat":22.806493759155273},{"bdId":"145","childs":[],"id":"5473cce2b8ce043a64108e0e","pinyin":"qin zhou shi","name":"钦州市","lng":108.63880157470703,"lat":21.973350524902344},{"bdId":"361","childs":[],"id":"5473ccdab8ce043a64108cb3","pinyin":"yu lin shi","name":"玉林市","lng":110.15167999267578,"lat":22.64397430419922},{"bdId":"304","childs":[],"id":"5473ccdab8ce043a64108cb8","pinyin":"wu zhou shi","name":"梧州市","lng":111.30547332763672,"lat":23.485395431518555}],"id":"","pinyin":"guang xi zhuang zu zi zhi qu","name":"广西壮族自治区","lng":0.0,"lat":0.0},{"bdId":"205","childs":[{"bdId":"263","childs":[],"id":"5473ccdab8ce043a64108cb4","pinyin":"an shun shi","name":"安顺市","lng":105.92826843261719,"lat":26.228593826293945},{"bdId":"146","childs":[],"id":"5473ccd1b8ce043a64108ad1","pinyin":"gui yang shi","name":"贵阳市","lng":106.70917510986328,"lat":26.629907608032227},{"bdId":"147","childs":[],"id":"5473ccd1b8ce043a64108ae3","pinyin":"liu pan shui shi","name":"六盘水市","lng":104.85208892822266,"lat":26.59186553955078},{"bdId":"306","childs":[],"id":"547aec01b8ce043deccfee78","pinyin":"qian nan bu yi zu miao zu zi zhi zhou","name":"黔南布依族苗族自治州","lng":107.52214050292969,"lat":26.254091262817383},{"bdId":"343","childs":[],"id":"547aec01b8ce043deccfee7b","pinyin":"qian xi nan bu yi zu miao zu zi zhi zhou","name":"黔西南布依族苗族自治州","lng":104.9063949584961,"lat":25.087825775146484},{"bdId":"262","childs":[],"id":"547d27d58b5f77f8305ef017","pinyin":"zun yi shi","name":"遵义市","lng":106.93125915527344,"lat":27.699960708618164},{"bdId":"206","childs":[],"id":"5473ccd1b8ce043a64108ae5","pinyin":"bi jie shi","name":"毕节市","lng":105.33332061767578,"lat":27.40856170654297}],"id":"","pinyin":"gui zhou sheng","name":"贵州省","lng":0.0,"lat":0.0},{"bdId":"296","childs":[{"bdId":"125","childs":[],"id":"5473cce2b8ce043a64108e0d","pinyin":"hai kou shi","name":"海口市","lng":110.33080291748047,"lat":20.022071838378906},{"bdId":"121","childs":[],"id":"5473cce2b8ce043a64108e12","pinyin":"san ya shi","name":"三亚市","lng":109.52277374267578,"lat":18.257776260375977},{"bdId":"1644","childs":[],"id":"5473ccd6b8ce043a64108c0d","pinyin":"wu zhi shan shi","name":"五指山市","lng":109.51775360107422,"lat":18.83130645751953},{"bdId":"2358","childs":[],"id":"5473ccd6b8ce043a64108c16","pinyin":"qiong hai shi","name":"琼海市","lng":110.41436004638672,"lat":19.21483039855957},{"bdId":"1215","childs":[],"id":"5473ccd6b8ce043a64108c14","pinyin":"dan zhou shi","name":"儋州市","lng":109.41397094726563,"lat":19.57115364074707},{"bdId":"2758","childs":[],"id":"5473ccd6b8ce043a64108c15","pinyin":"wen chang shi","name":"文昌市","lng":110.7809066772461,"lat":19.750947952270508},{"bdId":"2634","childs":[],"id":"547aebe5b8ce043deccfebd2","pinyin":"dong fang shi","name":"东方市","lng":108.85101318359375,"lat":18.99816131591797},{"bdId":"1214","childs":[],"id":"546f2dacb8ce0440eddb2ce6","pinyin":"ding an xian","name":"定安县","lng":110.32861328125,"lat":19.698152542114258},{"bdId":"1641","childs":[],"id":"547aebfdb8ce043deccfec44","pinyin":"tun chang xian","name":"屯昌县","lng":110.10347747802734,"lat":19.352569580078125},{"bdId":"2757","childs":[],"id":"547aebfdb8ce043deccfec41","pinyin":"cheng mai xian","name":"澄迈县","lng":110.0068359375,"lat":19.739238739013672},{"bdId":"2033","childs":[],"id":"547aebfdb8ce043deccfec43","pinyin":"lin gao xian","name":"临高县","lng":109.69037628173828,"lat":19.9128360748291},{"bdId":"2359","childs":[],"id":"547aebfdb8ce043deccfec45","pinyin":"bai sha li zu zi zhi xian","name":"白沙黎族自治县","lng":109.45159149169922,"lat":19.225786209106445},{"bdId":"2032","childs":[],"id":"547aebfdb8ce043deccfec42","pinyin":"le dong li zu zi zhi xian","name":"乐东黎族自治县","lng":109.18075561523438,"lat":18.77891731262207},{"bdId":"1643","childs":[],"id":"546f2dacb8ce0440eddb2cf5","pinyin":"ling shui li zu zi zhi xian","name":"陵水黎族自治县","lng":109.94866180419922,"lat":18.575984954833984},{"bdId":"1217","childs":[],"id":"546f2dacb8ce0440eddb2cec","pinyin":"bao ting li zu miao zu zi zhi xian","name":"保亭黎族苗族自治县","lng":109.7027816772461,"lat":18.639780044555664},{"bdId":"2031","childs":[],"id":"547aec01b8ce043deccfee56","pinyin":"qiong zhong li zu miao zu zi zhi xian","name":"琼中黎族苗族自治县","lng":109.84130859375,"lat":19.05952262878418}],"id":"","pinyin":"hai nan sheng","name":"海南省","lng":0.0,"lat":0.0},{"bdId":"12","childs":[{"bdId":"150","childs":[],"id":"5473ccccb8ce043a6410898d","pinyin":"shi jia zhuang shi","name":"石家庄市","lng":114.52207946777344,"lat":38.04895782470703},{"bdId":"307","childs":[],"id":"5473ccddb8ce043a64108d46","pinyin":"bao ding shi","name":"保定市","lng":115.49481201171875,"lat":38.886566162109375},{"bdId":"149","childs":[],"id":"5473cccbb8ce043a64108945","pinyin":"cang zhou shi","name":"沧州市","lng":116.86380767822266,"lat":38.29761505126953},{"bdId":"207","childs":[],"id":"5473cccbb8ce043a64108946","pinyin":"cheng de shi","name":"承德市","lng":117.93382263183594,"lat":40.99251937866211},{"bdId":"151","childs":[],"id":"5473ccddb8ce043a64108d45","pinyin":"han dan shi","name":"邯郸市","lng":114.48269653320313,"lat":36.60930633544922},{"bdId":"191","childs":[],"id":"5473ccdeb8ce043a64108d60","pinyin":"lang fang shi","name":"廊坊市","lng":116.70360565185547,"lat":39.518611907958984},{"bdId":"208","childs":[],"id":"547aec00b8ce043deccfede0","pinyin":"heng shui shi","name":"衡水市","lng":115.68622589111328,"lat":37.74692916870117},{"bdId":"148","childs":[],"id":"5473cccbb8ce043a64108944","pinyin":"qin huang dao shi","name":"秦皇岛市","lng":119.6043701171875,"lat":39.94546127319336},{"bdId":"265","childs":[],"id":"5473cce2b8ce043a64108e07","pinyin":"tang shan shi","name":"唐山市","lng":118.1834487915039,"lat":39.65053176879883},{"bdId":"264","childs":[],"id":"5473ccccb8ce043a6410898b","pinyin":"zhang jia kou shi","name":"张家口市","lng":114.89378356933594,"lat":40.811187744140625},{"bdId":"266","childs":[],"id":"5473ccccb8ce043a6410898c","pinyin":"xing tai shi","name":"邢台市","lng":114.5204849243164,"lat":37.06953048706055}],"id":"","pinyin":"he bei sheng","name":"河北省","lng":0.0,"lat":0.0},{"bdId":"13","childs":[{"bdId":"48","childs":[],"id":"5473cce1b8ce043a64108dd3","pinyin":"ha er bin shi","name":"哈尔滨市","lng":126.65771484375,"lat":45.773223876953125},{"bdId":"50","childs":[],"id":"5473ccc5b8ce043a64108814","pinyin":"da qing shi","name":"大庆市","lng":125.02184295654297,"lat":46.596710205078125},{"bdId":"38","childs":[],"id":"5473cce0b8ce043a64108dcf","pinyin":"da xing an ling di qu","name":"大兴安岭地区","lng":124.19610595703125,"lat":51.991790771484375},{"bdId":"43","childs":[],"id":"546f2daab8ce0440eddb2af0","pinyin":"he gang shi","name":"鹤岗市","lng":130.29246520996094,"lat":47.33866500854492},{"bdId":"39","childs":[],"id":"546f2dabb8ce0440eddb2c40","pinyin":"hei he shi","name":"黑河市","lng":127.5008316040039,"lat":50.25069046020508},{"bdId":"46","childs":[],"id":"5473cce1b8ce043a64108dd6","pinyin":"ji xi shi","name":"鸡西市","lng":130.9417724609375,"lat":45.32154083251953},{"bdId":"42","childs":[],"id":"5473ccc5b8ce043a6410880d","pinyin":"jia mu si shi","name":"佳木斯市","lng":130.28472900390625,"lat":46.813777923583984},{"bdId":"49","childs":[],"id":"546f2dabb8ce0440eddb2c1b","pinyin":"mu dan jiang shi","name":"牡丹江市","lng":129.6080322265625,"lat":44.58852005004883},{"bdId":"41","childs":[],"id":"5473cce0b8ce043a64108dce","pinyin":"qi qi ha er shi","name":"齐齐哈尔市","lng":123.98728942871094,"lat":47.34769821166992},{"bdId":"47","childs":[],"id":"5473ccc5b8ce043a6410880c","pinyin":"qi tai he shi","name":"七台河市","lng":131.01904296875,"lat":45.77500534057617},{"bdId":"45","childs":[],"id":"546f2dabb8ce0440eddb2c18","pinyin":"shuang ya shan shi","name":"双鸭山市","lng":131.20135498046875,"lat":46.667205810546875},{"bdId":"44","childs":[],"id":"546f2daab8ce0440eddb2af3","pinyin":"sui hua shi","name":"绥化市","lng":126.98909759521484,"lat":46.64606475830078},{"bdId":"40","childs":[],"id":"5473cce1b8ce043a64108dd2","pinyin":"yi chun shi","name":"伊春市","lng":128.9107666015625,"lat":47.734683990478516}],"id":"","pinyin":"hei long jiang sheng","name":"黑龙江省","lng":0.0,"lat":0.0},{"bdId":"1277","childs":[{"bdId":"268","childs":[],"id":"5473ccddb8ce043a64108d22","pinyin":"zheng zhou shi","name":"郑州市","lng":113.64964294433594,"lat":34.75661087036133},{"bdId":"267","childs":[],"id":"5473cccdb8ce043a641089d2","pinyin":"an yang shi","name":"安阳市","lng":114.351806640625,"lat":36.110267639160156},{"bdId":"215","childs":[],"id":"5473ccddb8ce043a64108d2f","pinyin":"he bi shi","name":"鹤壁市","lng":114.29776763916016,"lat":35.75542449951172},{"bdId":"211","childs":[],"id":"5473cce2b8ce043a64108e08","pinyin":"jiao zuo shi","name":"焦作市","lng":113.21183776855469,"lat":35.2346076965332},{"bdId":"210","childs":[],"id":"5473ccddb8ce043a64108d2a","pinyin":"kai feng shi","name":"开封市","lng":114.35163879394531,"lat":34.80185317993164},{"bdId":"344","childs":[],"id":"5473cccdb8ce043a641089d1","pinyin":"luo he shi","name":"漯河市","lng":114.04605865478516,"lat":33.57627868652344},{"bdId":"309","childs":[],"id":"5473cccdb8ce043a641089d9","pinyin":"nan yang shi","name":"南阳市","lng":112.54283905029297,"lat":33.01142120361328},{"bdId":"153","childs":[],"id":"5473cccdb8ce043a641089db","pinyin":"luo yang shi","name":"洛阳市","lng":112.44752502441406,"lat":34.65736770629883},{"bdId":"213","childs":[],"id":"5473cccdb8ce043a641089da","pinyin":"ping ding shan shi","name":"平顶山市","lng":113.34195709228516,"lat":33.72549057006836},{"bdId":"209","childs":[],"id":"54783056b8ce0438c52c0a27","pinyin":"pu yang shi","name":"濮阳市","lng":115.02662658691406,"lat":35.753299713134766},{"bdId":"154","childs":[],"id":"547aec01b8ce043deccfee1c","pinyin":"shang qiu shi","name":"商丘市","lng":115.64188385009766,"lat":34.4385871887207},{"bdId":"212","childs":[],"id":"5473ccddb8ce043a64108d23","pinyin":"san men xia shi","name":"三门峡市","lng":111.18125915527344,"lat":34.783321380615234},{"bdId":"152","childs":[],"id":"5473cccdb8ce043a641089d3","pinyin":"xin xiang shi","name":"新乡市","lng":113.91268920898438,"lat":35.30725860595703},{"bdId":"214","childs":[],"id":"5473ccddb8ce043a64108d27","pinyin":"xin yang shi","name":"信阳市","lng":114.08548736572266,"lat":32.12858200073242},{"bdId":"155","childs":[],"id":"5473ccddb8ce043a64108d28","pinyin":"xu chang shi","name":"许昌市","lng":113.83531188964844,"lat":34.02674102783203},{"bdId":"308","childs":[],"id":"5473ccddb8ce043a64108d32","pinyin":"zhou kou shi","name":"周口市","lng":114.65409851074219,"lat":33.623741149902344},{"bdId":"269","childs":[],"id":"5473ccddb8ce043a64108d2d","pinyin":"zhu ma dian shi","name":"驻马店市","lng":114.04915618896484,"lat":32.983158111572266}],"id":"","pinyin":"he nan sheng","name":"河南省","lng":0.0,"lat":0.0},{"bdId":"15","childs":[{"bdId":"275","childs":[],"id":"5473cce2b8ce043a64108e13","pinyin":"chen zhou shi","name":"郴州市","lng":113.03770446777344,"lat":25.782264709472656},{"bdId":"158","childs":[],"id":"5473ccceb8ce043a64108a30","pinyin":"zhang sha shi","name":"长沙市","lng":112.97935485839844,"lat":28.213478088378906},{"bdId":"219","childs":[],"id":"5473ccceb8ce043a64108a3a","pinyin":"chang de shi","name":"常德市","lng":111.65371704101563,"lat":29.012147903442383},{"bdId":"159","childs":[],"id":"5473ccdbb8ce043a64108cea","pinyin":"heng yang shi","name":"衡阳市","lng":112.58381652832031,"lat":26.898164749145508},{"bdId":"363","childs":[],"id":"546f2da9b8ce0440eddb2a1f","pinyin":"huai hua shi","name":"怀化市","lng":109.9869613647461,"lat":27.557483673095703},{"bdId":"221","childs":[],"id":"5473cccfb8ce043a64108a3b","pinyin":"lou di shi","name":"娄底市","lng":111.99639892578125,"lat":27.741073608398438},{"bdId":"274","childs":[],"id":"5473ccceb8ce043a64108a31","pinyin":"xiang xi tu jia zu miao zu zi zhi zhou","name":"湘西土家族苗族自治州","lng":109.73815155029297,"lat":28.31183433532715},{"bdId":"273","childs":[],"id":"5473ccdbb8ce043a64108cdd","pinyin":"shao yang shi","name":"邵阳市","lng":111.4615249633789,"lat":27.2368106842041},{"bdId":"313","childs":[],"id":"546f2da9b8ce0440eddb2a09","pinyin":"xiang tan shi","name":"湘潭市","lng":112.93555450439453,"lat":27.835094451904297},{"bdId":"272","childs":[],"id":"5473ccceb8ce043a64108a39","pinyin":"yi yang shi","name":"益阳市","lng":112.36654663085938,"lat":28.58808708190918},{"bdId":"314","childs":[],"id":"5473ccceb8ce043a64108a38","pinyin":"yong zhou shi","name":"永州市","lng":111.6146469116211,"lat":26.435972213745117},{"bdId":"222","childs":[],"id":"5473ccdbb8ce043a64108ceb","pinyin":"zhu zhou shi","name":"株洲市","lng":113.13169860839844,"lat":27.82743263244629},{"bdId":"312","childs":[],"id":"546f2da9b8ce0440eddb2a1e","pinyin":"zhang jia jie shi","name":"张家界市","lng":110.48162078857422,"lat":29.124889373779297},{"bdId":"220","childs":[],"id":"5473ccceb8ce043a64108a2e","pinyin":"yue yang shi","name":"岳阳市","lng":113.14619445800781,"lat":29.378007888793945}],"id":"","pinyin":"hu nan sheng","name":"湖南省","lng":0.0,"lat":0.0},{"bdId":"156","childs":[{"bdId":"218","childs":[],"id":"5479360db8ce047cad40b1f3","pinyin":"wu han shi","name":"武汉市","lng":114.31620025634766,"lat":30.581083297729492},{"bdId":"122","childs":[],"id":"5473cccfb8ce043a64108a3e","pinyin":"e zhou shi","name":"鄂州市","lng":114.89559173583984,"lat":30.38443946838379},{"bdId":"373","childs":[],"id":"5473ccdab8ce043a64108cc7","pinyin":"en shi tu jia zu miao zu zi zhi zhou","name":"恩施土家族苗族自治州","lng":109.47916412353516,"lat":30.288888931274414},{"bdId":"271","childs":[],"id":"5473ccdbb8ce043a64108cdc","pinyin":"huang gang shi","name":"黄冈市","lng":114.9066162109375,"lat":30.446109771728516},{"bdId":"311","childs":[],"id":"5473cccfb8ce043a64108a3f","pinyin":"huang shi shi","name":"黄石市","lng":115.0506820678711,"lat":30.216127395629883},{"bdId":"217","childs":[],"id":"5473ccdbb8ce043a64108ccc","pinyin":"jing men shi","name":"荆门市","lng":112.21733093261719,"lat":31.042612075805664},{"bdId":"157","childs":[],"id":"5473ccdbb8ce043a64108cd4","pinyin":"jing zhou shi","name":"荆州市","lng":112.24186706542969,"lat":30.332590103149414},{"bdId":"216","childs":[],"id":"5473ccdab8ce043a64108cc8","pinyin":"shi yan shi","name":"十堰市","lng":110.80123138427734,"lat":32.636993408203125},{"bdId":"371","childs":[],"id":"5473ccdbb8ce043a64108cd5","pinyin":"sui zhou shi","name":"随州市","lng":113.37935638427734,"lat":31.717857360839844},{"bdId":"362","childs":[],"id":"5473ccdbb8ce043a64108cdb","pinyin":"xian ning shi","name":"咸宁市","lng":114.30006408691406,"lat":29.880657196044922},{"bdId":"310","childs":[],"id":"5473cccfb8ce043a64108a46","pinyin":"xiao gan shi","name":"孝感市","lng":113.93573760986328,"lat":30.927955627441406},{"bdId":"270","childs":[],"id":"5473cccfb8ce043a64108a69","pinyin":"yi chang shi","name":"宜昌市","lng":111.31098175048828,"lat":30.732757568359375},{"bdId":"1713","childs":[],"id":"5473cccfb8ce043a64108a5c","pinyin":"xian tao shi","name":"仙桃市","lng":113.387451171875,"lat":30.29396629333496},{"bdId":"1293","childs":[],"id":"5473cccfb8ce043a64108a61","pinyin":"qian jiang shi","name":"潜江市","lng":112.76876831054688,"lat":30.343114852905273},{"bdId":"2654","childs":[],"id":"5473cccfb8ce043a64108a5d","pinyin":"tian men shi","name":"天门市","lng":113.16673278808594,"lat":30.664161682128906}],"id":"","pinyin":"hu bei sheng","name":"湖北省","lng":0.0,"lat":0.0},{"bdId":"17","childs":[{"bdId":"53","childs":[],"id":"5473cce1b8ce043a64108dd7","pinyin":"zhang chun shi","name":"长春市","lng":125.31364440917969,"lat":43.898338317871094},{"bdId":"51","childs":[],"id":"546f74d2b8ce040168247028","pinyin":"bai cheng shi","name":"白城市","lng":122.84077453613281,"lat":45.62108612060547},{"bdId":"57","childs":[],"id":"546f74d2b8ce040168247018","pinyin":"bai shan shi","name":"白山市","lng":126.423583984375,"lat":41.93999481201172},{"bdId":"55","childs":[],"id":"5473cce1b8ce043a64108de5","pinyin":"ji lin shi","name":"吉林市","lng":0.0,"lat":0.0},{"bdId":"56","childs":[],"id":"5473ccc5b8ce043a6410880b","pinyin":"si ping shi","name":"四平市","lng":124.3913803100586,"lat":43.1755256652832},{"bdId":"183","childs":[],"id":"546f74d2b8ce040168247017","pinyin":"liao yuan shi","name":"辽源市","lng":125.14595031738281,"lat":42.896087646484375},{"bdId":"52","childs":[],"id":"5473ccc4b8ce043a641087f9","pinyin":"song yuan shi","name":"松原市","lng":124.83299255371094,"lat":45.13604736328125},{"bdId":"165","childs":[],"id":"5473ccc5b8ce043a64108809","pinyin":"tong hua shi","name":"通化市","lng":125.9426498413086,"lat":41.73639678955078},{"bdId":"54","childs":[],"id":"546f74d2b8ce04016824701a","pinyin":"yan bian chao xian zu zi zhi zhou","name":"延边朝鲜族自治州","lng":129.48590087890625,"lat":42.89641189575195}],"id":"","pinyin":"ji lin sheng","name":"吉林省","lng":0.0,"lat":0.0},{"bdId":"18","childs":[{"bdId":"315","childs":[],"id":"5473ccdfb8ce043a64108da5","pinyin":"nan jing shi","name":"南京市","lng":118.778076171875,"lat":32.05723571777344},{"bdId":"348","childs":[],"id":"5473ccdfb8ce043a64108da4","pinyin":"chang zhou shi","name":"常州市","lng":119.98185729980469,"lat":31.77139663696289},{"bdId":"162","childs":[],"id":"5473ccdfb8ce043a64108da1","pinyin":"huai an shi","name":"淮安市","lng":119.03018951416016,"lat":33.60651397705078},{"bdId":"161","childs":[],"id":"5473ccc6b8ce043a64108869","pinyin":"nan tong shi","name":"南通市","lng":120.8738021850586,"lat":32.01466369628906},{"bdId":"347","childs":[],"id":"5473ccc7b8ce043a6410887c","pinyin":"lian yun gang shi","name":"连云港市","lng":119.17387390136719,"lat":34.60154724121094},{"bdId":"277","childs":[],"id":"5473ccc7b8ce043a64108881","pinyin":"su qian shi","name":"宿迁市","lng":118.29689025878906,"lat":33.952049255371094},{"bdId":"224","childs":[],"id":"5473cce0b8ce043a64108db3","pinyin":"su zhou shi","name":"苏州市","lng":120.61990356445313,"lat":31.3179874420166},{"bdId":"276","childs":[],"id":"5473ccc7b8ce043a64108879","pinyin":"tai zhou shi","name":"泰州市","lng":119.91960906982422,"lat":32.47605514526367},{"bdId":"317","childs":[],"id":"5473ccdfb8ce043a64108da2","pinyin":"wu xi shi","name":"无锡市","lng":120.30545806884766,"lat":31.570037841796875},{"bdId":"316","childs":[],"id":"5473ccc7b8ce043a6410887f","pinyin":"xu zhou shi","name":"徐州市","lng":117.1881103515625,"lat":34.27155303955078},{"bdId":"223","childs":[],"id":"5473ccc7b8ce043a64108878","pinyin":"yan cheng shi","name":"盐城市","lng":120.14887237548828,"lat":33.37986373901367},{"bdId":"346","childs":[],"id":"5473ccc7b8ce043a6410887b","pinyin":"yang zhou shi","name":"扬州市","lng":119.42778015136719,"lat":32.408504486083984},{"bdId":"160","childs":[],"id":"5473ccc7b8ce043a6410887a","pinyin":"zhen jiang shi","name":"镇江市","lng":119.4558334350586,"lat":32.204410552978516}],"id":"","pinyin":"jiang su sheng","name":"江苏省","lng":0.0,"lat":0.0},{"bdId":"19","childs":[{"bdId":"163","childs":[],"id":"5473cccab8ce043a6410892c","pinyin":"nan chang shi","name":"南昌市","lng":115.89352416992188,"lat":28.689577102661133},{"bdId":"226","childs":[],"id":"5473cccab8ce043a64108928","pinyin":"fu zhou shi","name":"抚州市","lng":116.3583755493164,"lat":27.99229621887207},{"bdId":"318","childs":[],"id":"5473cccab8ce043a6410892a","pinyin":"ji an shi","name":"吉安市","lng":114.99203491210938,"lat":27.113847732543945},{"bdId":"365","childs":[],"id":"5473cccab8ce043a64108927","pinyin":"gan zhou shi","name":"赣州市","lng":114.93590545654297,"lat":25.845294952392578},{"bdId":"349","childs":[],"id":"5473cccab8ce043a64108926","pinyin":"jiu jiang shi","name":"九江市","lng":115.99984741210938,"lat":29.71963882446289},{"bdId":"225","childs":[],"id":"5473cccab8ce043a64108922","pinyin":"jing de zhen shi","name":"景德镇市","lng":117.1865234375,"lat":29.30356216430664},{"bdId":"350","childs":[],"id":"5473cccab8ce043a6410892b","pinyin":"ping xiang shi","name":"萍乡市","lng":113.85991668701172,"lat":27.639543533325195},{"bdId":"364","childs":[],"id":"5473cccab8ce043a6410892d","pinyin":"shang rao shi","name":"上饶市","lng":117.9554672241211,"lat":28.457622528076172},{"bdId":"164","childs":[],"id":"5473cccab8ce043a64108929","pinyin":"xin yu shi","name":"新余市","lng":114.9471206665039,"lat":27.82232093811035},{"bdId":"279","childs":[],"id":"546f2dacb8ce0440eddb2d4a","pinyin":"ying tan shi","name":"鹰潭市","lng":117.03545379638672,"lat":28.241310119628906},{"bdId":"278","childs":[],"id":"5473ccdeb8ce043a64108d66","pinyin":"yi chun shi","name":"宜春市","lng":114.40003967285156,"lat":27.81113052368164}],"id":"","pinyin":"jiang xi sheng","name":"江西省","lng":0.0,"lat":0.0},{"bdId":"20","childs":[{"bdId":"58","childs":[],"id":"5473cce1b8ce043a64108dd1","pinyin":"shen yang shi","name":"沈阳市","lng":123.43279266357422,"lat":41.80864334106445},{"bdId":"227","childs":[],"id":"5473ccc5b8ce043a64108818","pinyin":"ben xi shi","name":"本溪市","lng":123.77806091308594,"lat":41.325836181640625},{"bdId":"320","childs":[],"id":"5473cce0b8ce043a64108dcd","pinyin":"an shan shi","name":"鞍山市","lng":123.00776672363281,"lat":41.118743896484375},{"bdId":"280","childs":[],"id":"5473ccc6b8ce043a64108824","pinyin":"chao yang shi","name":"朝阳市","lng":120.45037078857422,"lat":41.573734283447266},{"bdId":"167","childs":[],"id":"547d27d48b5f77f8305ef015","pinyin":"da lian shi","name":"大连市","lng":121.59347534179688,"lat":38.94871139526367},{"bdId":"282","childs":[],"id":"547bcefab8ce040bfde6325a","pinyin":"dan dong shi","name":"丹东市","lng":124.33854675292969,"lat":40.129024505615234},{"bdId":"184","childs":[],"id":"5473ccc5b8ce043a64108816","pinyin":"fu shun shi","name":"抚顺市","lng":123.92981719970703,"lat":41.87730407714844},{"bdId":"59","childs":[],"id":"5473ccc6b8ce043a64108825","pinyin":"fu xin shi","name":"阜新市","lng":121.66082000732422,"lat":42.019248962402344},{"bdId":"319","childs":[],"id":"5473cce0b8ce043a64108dc6","pinyin":"hu lu dao shi","name":"葫芦岛市","lng":120.86075592041016,"lat":40.7430305480957},{"bdId":"166","childs":[],"id":"5473ccc3b8ce043a641087ae","pinyin":"jin zhou shi","name":"锦州市","lng":121.14775085449219,"lat":41.13087844848633},{"bdId":"351","childs":[],"id":"546f74d2b8ce04016824702a","pinyin":"liao yang shi","name":"辽阳市","lng":123.17245483398438,"lat":41.273338317871094},{"bdId":"60","childs":[],"id":"5473ccc5b8ce043a64108817","pinyin":"tie ling shi","name":"铁岭市","lng":123.85485076904297,"lat":42.29975891113281},{"bdId":"228","childs":[],"id":"54782a5db8ce042b8e26e613","pinyin":"pan jin shi","name":"盘锦市","lng":122.07322692871094,"lat":41.1412467956543},{"bdId":"281","childs":[],"id":"5473cce2b8ce043a64108dfb","pinyin":"ying kou shi","name":"营口市","lng":122.23339080810547,"lat":40.66865158081055}],"id":"","pinyin":"liao ning sheng","name":"辽宁省","lng":0.0,"lat":0.0},{"bdId":"21","childs":[{"bdId":"321","childs":[],"id":"5473ccd3b8ce043a64108b4f","pinyin":"hu he hao te shi","name":"呼和浩特市","lng":111.66034698486328,"lat":40.82831954956055},{"bdId":"229","childs":[],"id":"5473ccd4b8ce043a64108b71","pinyin":"bao tou shi","name":"包头市","lng":109.84623718261719,"lat":40.647117614746094},{"bdId":"169","childs":[],"id":"5473ccd4b8ce043a64108b70","pinyin":"ba yan nao er shi","name":"巴彦淖尔市","lng":107.4238052368164,"lat":40.76918029785156},{"bdId":"297","childs":[],"id":"5473ccd2b8ce043a64108b31","pinyin":"chi feng shi","name":"赤峰市","lng":118.9307632446289,"lat":42.29711151123047},{"bdId":"283","childs":[],"id":"5473ccd3b8ce043a64108b5a","pinyin":"e er duo si shi","name":"鄂尔多斯市","lng":109.99370574951172,"lat":39.816490173339844},{"bdId":"61","childs":[],"id":"5473ccd3b8ce043a64108b34","pinyin":"hu lun bei er shi","name":"呼伦贝尔市","lng":119.76081848144531,"lat":49.201637268066406},{"bdId":"64","childs":[],"id":"5473ccd9b8ce043a64108c89","pinyin":"tong liao shi","name":"通辽市","lng":122.26036071777344,"lat":43.63375473022461},{"bdId":"123","childs":[],"id":"5473ccd8b8ce043a64108c70","pinyin":"wu hai shi","name":"乌海市","lng":106.83200073242188,"lat":39.68317794799805},{"bdId":"168","childs":[],"id":"5473ccd8b8ce043a64108c78","pinyin":"wu lan cha bu shi","name":"乌兰察布市","lng":113.11284637451172,"lat":41.022361755371094},{"bdId":"62","childs":[],"id":"5473ccd3b8ce043a64108b51","pinyin":"xing an meng","name":"兴安盟","lng":122.0670394897461,"lat":46.07756042480469}],"id":"","pinyin":"nei meng gu zi zhi qu","name":"内蒙古自治区","lng":0.0,"lat":0.0},{"bdId":"22","childs":[{"bdId":"360","childs":[],"id":"5473ccd0b8ce043a64108acd","pinyin":"yin chuan shi","name":"银川市","lng":106.20648193359375,"lat":38.502620697021484},{"bdId":"246","childs":[],"id":"5473ccd0b8ce043a64108ac9","pinyin":"gu yuan shi","name":"固原市","lng":106.28527069091797,"lat":36.021522521972656},{"bdId":"335","childs":[],"id":"5473ccd0b8ce043a64108ac8","pinyin":"shi zui shan shi","name":"石嘴山市","lng":106.37933349609375,"lat":39.02022171020508},{"bdId":"322","childs":[],"id":"546f623bb8ce04715c15844e","pinyin":"wu zhong shi","name":"吴忠市","lng":106.208251953125,"lat":37.993560791015625},{"bdId":"181","childs":[],"id":"5473ccdab8ce043a64108cb5","pinyin":"zhong wei shi","name":"中卫市","lng":105.1967544555664,"lat":37.52112579345703}],"id":"","pinyin":"ning xia hui zu zi zhi qu","name":"宁夏回族自治区","lng":0.0,"lat":0.0},{"bdId":"23","childs":[{"bdId":"66","childs":[],"id":"5473ccd4b8ce043a64108b91","pinyin":"xi ning shi","name":"西宁市","lng":101.7679214477539,"lat":36.64073944091797},{"bdId":"72","childs":[],"id":"546f33d3b8ce0464dbd8f5db","pinyin":"guo luo zang zu zi zhi zhou","name":"果洛藏族自治州","lng":100.22372436523438,"lat":34.48048400878906},{"bdId":"68","childs":[],"id":"546f33d3b8ce0464dbd8f5dc","pinyin":"hai nan zang zu zi zhi zhou","name":"海南藏族自治州","lng":100.6268310546875,"lat":36.29213333129883},{"bdId":"69","childs":[],"id":"5473ccd4b8ce043a64108b8e","pinyin":"hai dong di qu","name":"海东地区","lng":102.11051940917969,"lat":36.5081901550293},{"bdId":"67","childs":[],"id":"5473ccd6b8ce043a64108c1b","pinyin":"hai bei zang zu zi zhi zhou","name":"海北藏族自治州","lng":100.87979888916016,"lat":36.960655212402344},{"bdId":"65","childs":[],"id":"546f36c77b45832bea625e80","pinyin":"hai xi meng gu zu zang zu zi zhi zhou","name":"海西蒙古族藏族自治州","lng":97.3697509765625,"lat":37.377140045166016},{"bdId":"70","childs":[],"id":"5473ccd6b8ce043a64108c1d","pinyin":"huang nan zang zu zi zhi zhou","name":"黄南藏族自治州","lng":102.00759887695313,"lat":35.522850036621094},{"bdId":"71","childs":[],"id":"5473ccd4b8ce043a64108b8f","pinyin":"yu shu zang zu zi zhi zhou","name":"玉树藏族自治州","lng":97.01331329345703,"lat":33.00624084472656}],"id":"","pinyin":"qing hai sheng","name":"青海省","lng":0.0,"lat":0.0},{"bdId":"24","childs":[{"bdId":"288","childs":[],"id":"547bcef9b8ce040bfde63254","pinyin":"ji nan shi","name":"济南市","lng":117.02496337890625,"lat":36.68278503417969},{"bdId":"235","childs":[],"id":"5473cccab8ce043a64108918","pinyin":"bin zhou shi","name":"滨州市","lng":117.96829223632813,"lat":37.40531539916992},{"bdId":"372","childs":[],"id":"5473cccab8ce043a64108920","pinyin":"de zhou shi","name":"德州市","lng":116.36100769042969,"lat":37.4443359375},{"bdId":"174","childs":[],"id":"5473ccdeb8ce043a64108d68","pinyin":"dong ying shi","name":"东营市","lng":118.58392333984375,"lat":37.48712158203125},{"bdId":"353","childs":[],"id":"5473cccab8ce043a64108921","pinyin":"he ze shi","name":"菏泽市","lng":115.4633560180664,"lat":35.2624397277832},{"bdId":"286","childs":[],"id":"5473cccab8ce043a6410891e","pinyin":"ji ning shi","name":"济宁市","lng":116.60079956054688,"lat":35.402122497558594},{"bdId":"366","childs":[],"id":"5473cccab8ce043a6410891f","pinyin":"liao cheng shi","name":"聊城市","lng":115.98686981201172,"lat":36.45582962036133},{"bdId":"124","childs":[],"id":"5473ccdeb8ce043a64108d67","pinyin":"lai wu shi","name":"莱芜市","lng":117.6846694946289,"lat":36.2336540222168},{"bdId":"234","childs":[],"id":"547aec01b8ce043deccfee32","pinyin":"lin yi shi","name":"临沂市","lng":118.34076690673828,"lat":35.072410583496094},{"bdId":"325","childs":[],"id":"5473cccab8ce043a6410891c","pinyin":"tai an shi","name":"泰安市","lng":117.08941650390625,"lat":36.18807601928711},{"bdId":"236","childs":[],"id":"5473ccc9b8ce043a641088f1","pinyin":"qing dao shi","name":"青岛市","lng":120.38442993164063,"lat":36.1052131652832},{"bdId":"287","childs":[],"id":"547aec01b8ce043deccfee33","pinyin":"wei fang shi","name":"潍坊市","lng":119.14263153076172,"lat":36.71611404418945},{"bdId":"173","childs":[],"id":"5473ccc9b8ce043a641088ee","pinyin":"ri zhao shi","name":"日照市","lng":119.5071792602539,"lat":35.42022705078125},{"bdId":"175","childs":[],"id":"5473ccc9b8ce043a641088ed","pinyin":"wei hai shi","name":"威海市","lng":122.09395599365234,"lat":37.528785705566406},{"bdId":"326","childs":[],"id":"5473ccc9b8ce043a641088f0","pinyin":"yan tai shi","name":"烟台市","lng":121.30955505371094,"lat":37.53656005859375},{"bdId":"354","childs":[],"id":"5473cccab8ce043a6410891b","pinyin":"zi bo shi","name":"淄博市","lng":118.05913543701172,"lat":36.804683685302734},{"bdId":"172","childs":[],"id":"5473cccab8ce043a6410891a","pinyin":"zao zhuang shi","name":"枣庄市","lng":117.27930450439453,"lat":34.807884216308594}],"id":"","pinyin":"shan dong sheng","name":"山东省","lng":0.0,"lat":0.0},{"bdId":"25","childs":[{"bdId":"176","childs":[],"id":"5473ccdcb8ce043a64108d19","pinyin":"tai yuan shi","name":"太原市","lng":112.55086517333984,"lat":37.89027786254883},{"bdId":"356","childs":[],"id":"5473ccdcb8ce043a64108d1c","pinyin":"zhang zhi shi","name":"长治市","lng":113.12029266357422,"lat":36.201663970947266},{"bdId":"355","childs":[],"id":"5473ccddb8ce043a64108d25","pinyin":"da tong shi","name":"大同市","lng":113.29051208496094,"lat":40.11374282836914},{"bdId":"290","childs":[],"id":"5473cccdb8ce043a641089e0","pinyin":"jin cheng shi","name":"晋城市","lng":112.8673324584961,"lat":35.49983596801758},{"bdId":"238","childs":[],"id":"5473ccdcb8ce043a64108d18","pinyin":"jin zhong shi","name":"晋中市","lng":112.73851776123047,"lat":37.693363189697266},{"bdId":"327","childs":[],"id":"5473ccdcb8ce043a64108d1a","pinyin":"lv liang shi","name":"吕梁市","lng":111.14315795898438,"lat":37.52731704711914},{"bdId":"368","childs":[],"id":"5473cccdb8ce043a641089e2","pinyin":"lin fen shi","name":"临汾市","lng":111.53878784179688,"lat":36.09974670410156},{"bdId":"237","childs":[],"id":"546f2dacb8ce0440eddb2d0e","pinyin":"shuo zhou shi","name":"朔州市","lng":112.47992706298828,"lat":39.33767318725586},{"bdId":"367","childs":[],"id":"5473ccdcb8ce043a64108d17","pinyin":"xin zhou shi","name":"忻州市","lng":112.72793579101563,"lat":38.461029052734375},{"bdId":"357","childs":[],"id":"5473cccdb8ce043a641089de","pinyin":"yang quan shi","name":"阳泉市","lng":113.5692367553711,"lat":37.869529724121094},{"bdId":"328","childs":[],"id":"5473cccdb8ce043a641089e1","pinyin":"yun cheng shi","name":"运城市","lng":111.00685119628906,"lat":35.03886032104492}],"id":"","pinyin":"shan xi sheng","name":"山西省","lng":0.0,"lat":0.0},{"bdId":"26","childs":[{"bdId":"233","childs":[],"id":"5473ccdab8ce043a64108cb9","pinyin":"xi an shi","name":"西安市","lng":108.95309448242188,"lat":34.277801513671875},{"bdId":"171","childs":[],"id":"5473ccd0b8ce043a64108aa5","pinyin":"bao ji shi","name":"宝鸡市","lng":107.17064666748047,"lat":34.36408233642578},{"bdId":"324","childs":[],"id":"5473cccfb8ce043a64108a6c","pinyin":"an kang shi","name":"安康市","lng":109.03804779052734,"lat":32.704368591308594},{"bdId":"285","childs":[],"id":"5473cccfb8ce043a64108a6b","pinyin":"shang luo shi","name":"商洛市","lng":109.93421173095703,"lat":33.87390899658203},{"bdId":"170","childs":[],"id":"5473ccdbb8ce043a64108cd0","pinyin":"wei nan shi","name":"渭南市","lng":109.48393249511719,"lat":34.502357482910156},{"bdId":"232","childs":[],"id":"5478687cb8ce04201a8511c9","pinyin":"tong chuan shi","name":"铜川市","lng":108.96806335449219,"lat":34.90836715698242},{"bdId":"323","childs":[],"id":"5473cce2b8ce043a64108e10","pinyin":"xian yang shi","name":"咸阳市","lng":108.70751190185547,"lat":34.34537124633789},{"bdId":"284","childs":[],"id":"5473ccdab8ce043a64108cbb","pinyin":"yan an shi","name":"延安市","lng":109.5005111694336,"lat":36.60332107543945},{"bdId":"231","childs":[],"id":"5473ccd0b8ce043a64108aa6","pinyin":"yu lin shi","name":"榆林市","lng":109.74592590332031,"lat":38.27943801879883}],"id":"","pinyin":"shan xi sheng","name":"陕西省","lng":0.0,"lat":0.0},{"bdId":"27","childs":[{"bdId":"75","childs":[],"id":"5473ccc3b8ce043a641087b4","pinyin":"cheng dou shi","name":"成都市","lng":104.06792449951172,"lat":30.679943084716797},{"bdId":"185","childs":[],"id":"5473ccd2b8ce043a64108b24","pinyin":"a ba zang zu qiang zu zi zhi zhou","name":"阿坝藏族羌族自治州","lng":102.22464752197266,"lat":31.899412155151367},{"bdId":"239","childs":[],"id":"5479360cb8ce047cad40b1af","pinyin":"ba zhong shi","name":"巴中市","lng":106.75791931152344,"lat":31.86918830871582},{"bdId":"369","childs":[],"id":"5473cce1b8ce043a64108df7","pinyin":"da zhou shi","name":"达州市","lng":107.4949722290039,"lat":31.21419906616211},{"bdId":"74","childs":[],"id":"546f2dadb8ce0440eddb2e00","pinyin":"de yang shi","name":"德阳市","lng":104.40239715576172,"lat":31.131139755249023},{"bdId":"241","childs":[],"id":"5473cce1b8ce043a64108df5","pinyin":"guang an shi","name":"广安市","lng":106.6357192993164,"lat":30.4639835357666},{"bdId":"329","childs":[],"id":"546f2dadb8ce0440eddb2df3","pinyin":"guang yuan shi","name":"广元市","lng":105.81968688964844,"lat":32.4410400390625},{"bdId":"79","childs":[],"id":"546f2dadb8ce0440eddb2dc6","pinyin":"le shan shi","name":"乐山市","lng":103.76082611083984,"lat":29.6009578704834},{"bdId":"80","childs":[],"id":"5473ccd2b8ce043a64108b30","pinyin":"liang shan yi zu zi zhi zhou","name":"凉山彝族自治州","lng":102.2677230834961,"lat":27.88142967224121},{"bdId":"331","childs":[],"id":"5473ccc3b8ce043a641087b1","pinyin":"lu zhou shi","name":"泸州市","lng":105.4439697265625,"lat":28.89592933654785},{"bdId":"77","childs":[],"id":"5473ccd2b8ce043a64108b0d","pinyin":"mei shan shi","name":"眉山市","lng":103.8414306640625,"lat":30.061115264892578},{"bdId":"291","childs":[],"id":"5473ccc3b8ce043a641087af","pinyin":"nan chong shi","name":"南充市","lng":106.10555267333984,"lat":30.80096435546875},{"bdId":"240","childs":[],"id":"5473cce1b8ce043a64108ddf","pinyin":"mian yang shi","name":"绵阳市","lng":104.70552062988281,"lat":31.504701614379883},{"bdId":"248","childs":[],"id":"5473ccc3b8ce043a641087b0","pinyin":"nei jiang shi","name":"内江市","lng":105.07305908203125,"lat":29.59946060180664},{"bdId":"81","childs":[],"id":"5473ccd2b8ce043a64108b25","pinyin":"pan zhi hua shi","name":"攀枝花市","lng":101.72241973876953,"lat":26.58757209777832},{"bdId":"76","childs":[],"id":"546f2dadb8ce0440eddb2dff","pinyin":"ya an shi","name":"雅安市","lng":103.00935363769531,"lat":29.99971580505371},{"bdId":"330","childs":[],"id":"5473cce1b8ce043a64108df8","pinyin":"sui ning shi","name":"遂宁市","lng":105.56488800048828,"lat":30.557491302490234},{"bdId":"186","childs":[],"id":"546f2dadb8ce0440eddb2dca","pinyin":"yi bin shi","name":"宜宾市","lng":104.63301849365234,"lat":28.76967430114746},{"bdId":"78","childs":[],"id":"5473ccc3b8ce043a641087b2","pinyin":"zi gong shi","name":"自贡市","lng":104.77606964111328,"lat":29.35915756225586},{"bdId":"242","childs":[],"id":"547aec01b8ce043deccfee4b","pinyin":"zi yang shi","name":"资阳市","lng":104.63593292236328,"lat":30.132190704345703}],"id":"","pinyin":"si chuan sheng","name":"四川省","lng":0.0,"lat":0.0},{"bdId":"28","childs":[{"bdId":"100","childs":[],"id":"5473ccd8b8ce043a64108c62","pinyin":"la sa shi","name":"拉萨市","lng":91.11189270019531,"lat":29.66255760192871},{"bdId":"98","childs":[],"id":"5473ccd4b8ce043a64108b9f","pinyin":"lin zhi di qu","name":"林芝地区","lng":94.38041687011719,"lat":29.78325653076172},{"bdId":"99","childs":[],"id":"5473ccd4b8ce043a64108b95","pinyin":"chang dou di qu","name":"昌都地区","lng":97.24404907226563,"lat":31.4484806060791},{"bdId":"101","childs":[],"id":"5473ccd4b8ce043a64108b9c","pinyin":"nei qu di qu","name":"那曲地区","lng":92.03462982177734,"lat":31.252315521240234},{"bdId":"97","childs":[],"id":"5473ccd4b8ce043a64108ba1","pinyin":"shan nan di qu","name":"山南地区","lng":91.78219604492188,"lat":29.23125648498535},{"bdId":"102","childs":[],"id":"5473ccd4b8ce043a64108b9e","pinyin":"ri ka ze di qu","name":"日喀则地区","lng":88.95606231689453,"lat":29.268159866333008}],"id":"","pinyin":"xi zang zi zhi qu","name":"西藏自治区","lng":0.0,"lat":0.0},{"bdId":"87","childs":[{"bdId":"92","childs":[],"id":"547d27d58b5f77f8305ef016","pinyin":"wu lu mu qi shi","name":"乌鲁木齐市","lng":87.56498718261719,"lat":43.84038162231445},{"bdId":"85","childs":[],"id":"5473ccd5b8ce043a64108bce","pinyin":"a ke su di qu","name":"阿克苏地区","lng":81.15601348876953,"lat":40.34944534301758},{"bdId":"96","childs":[],"id":"5473ccd5b8ce043a64108bca","pinyin":"a le tai di qu","name":"阿勒泰地区","lng":87.92621612548828,"lat":47.89013671875},{"bdId":"86","childs":[],"id":"5473ccd5b8ce043a64108bcf","pinyin":"ba yin guo leng meng gu zi zhi zhou","name":"巴音郭楞蒙古自治州","lng":86.12168884277344,"lat":41.7713623046875},{"bdId":"88","childs":[],"id":"5473ccd7b8ce043a64108c27","pinyin":"bo er ta la meng gu zi zhi zhou","name":"博尔塔拉蒙古自治州","lng":82.05243682861328,"lat":44.91365051269531},{"bdId":"93","childs":[],"id":"5473ccd8b8ce043a64108c63","pinyin":"chang ji hui zu zi zhi zhou","name":"昌吉回族自治州","lng":87.29603576660156,"lat":44.007057189941406},{"bdId":"82","childs":[],"id":"5473ccd5b8ce043a64108bcd","pinyin":"he tian di qu","name":"和田地区","lng":79.8062973022461,"lat":37.07632827758789},{"bdId":"91","childs":[],"id":"5473ccd4b8ce043a64108b9d","pinyin":"ha mi di qu","name":"哈密地区","lng":93.52937316894531,"lat":42.34446716308594},{"bdId":"83","childs":[],"id":"5473ccd5b8ce043a64108bd1","pinyin":"ka shen di qu","name":"喀什地区","lng":76.01434326171875,"lat":39.51311111450195},{"bdId":"95","childs":[],"id":"5473ccd5b8ce043a64108bc7","pinyin":"ke la ma yi shi","name":"克拉玛依市","lng":84.88117980957031,"lat":45.594329833984375},{"bdId":"94","childs":[],"id":"5473ccd7b8ce043a64108c34","pinyin":"ta cheng di qu","name":"塔城地区","lng":83.19012451171875,"lat":46.81136703491211},{"bdId":"84","childs":[],"id":"5473ccd5b8ce043a64108bd0","pinyin":"ke zi le su ke er ke zi zi zhi zhou","name":"克孜勒苏柯尔克孜自治州","lng":76.16889953613281,"lat":39.727787017822266},{"bdId":"89","childs":[],"id":"5479360cb8ce047cad40b1b3","pinyin":"tu lu fan di qu","name":"吐鲁番地区","lng":89.26602172851563,"lat":42.678924560546875},{"bdId":"770","childs":[],"id":"5473ccd7b8ce043a64108c40","pinyin":"shi he zi shi","name":"石河子市","lng":86.04186248779297,"lat":44.308258056640625},{"bdId":"731","childs":[],"id":"5473ccd7b8ce043a64108c39","pinyin":"a la er shi","name":"阿拉尔市","lng":81.28046417236328,"lat":40.546905517578125},{"bdId":"792","childs":[],"id":"54789403b8ce045e033aeb97","pinyin":"tu mu shu shi","name":"图木舒克市","lng":79.07135009765625,"lat":39.88550567626953},{"bdId":"789","childs":[],"id":"5473ccd7b8ce043a64108c36","pinyin":"wu jia qu shi","name":"五家渠市","lng":87.54322814941406,"lat":44.1673698425293}],"id":"","pinyin":"xin jiang wei wu er zi zhi qu","name":"新疆维吾尔自治区","lng":0.0,"lat":0.0},{"bdId":"30","childs":[{"bdId":"112","childs":[],"id":"5473ccd2b8ce043a64108b0e","pinyin":"bao shan shi","name":"保山市","lng":99.17799377441406,"lat":25.1204891204834},{"bdId":"104","childs":[],"id":"5473ccd1b8ce043a64108ae7","pinyin":"kun ming shi","name":"昆明市","lng":102.714599609375,"lat":25.049152374267578},{"bdId":"105","childs":[],"id":"5473ccdab8ce043a64108ca4","pinyin":"chu xiong yi zu zi zhi zhou","name":"楚雄彝族自治州","lng":101.52938079833984,"lat":25.066354751586914},{"bdId":"116","childs":[],"id":"5473cce1b8ce043a64108df4","pinyin":"de hong dai zu jing po zu zi zhi zhou","name":"德宏傣族景颇族自治州","lng":98.58943176269531,"lat":24.441240310668945},{"bdId":"111","childs":[],"id":"5479360cb8ce047cad40b193","pinyin":"da li bai zu zi zhi zhou","name":"大理白族自治州","lng":100.22367858886719,"lat":25.596899032592773},{"bdId":"115","childs":[],"id":"5473ccd9b8ce043a64108c99","pinyin":"di qing zang zu zi zhi zhou","name":"迪庆藏族自治州","lng":99.71368408203125,"lat":27.831029891967773},{"bdId":"114","childs":[],"id":"547bcef9b8ce040bfde631bb","pinyin":"li jiang shi","name":"丽江市","lng":100.22962951660156,"lat":26.875350952148438},{"bdId":"107","childs":[],"id":"546f2dadb8ce0440eddb2db2","pinyin":"hong he ha ni zu yi zu zi zhi zhou","name":"红河哈尼族彝族自治州","lng":103.38406372070313,"lat":23.367717742919922},{"bdId":"110","childs":[],"id":"5473ccd9b8ce043a64108c9b","pinyin":"lin cang shi","name":"临沧市","lng":100.0859375,"lat":23.88394546508789},{"bdId":"113","childs":[],"id":"5473ccd6b8ce043a64108c11","pinyin":"nu jiang li su zu zi zhi zhou","name":"怒江傈僳族自治州","lng":98.85993194580078,"lat":25.86067771911621},{"bdId":"249","childs":[],"id":"5473ccdab8ce043a64108ca9","pinyin":"qu jing shi","name":"曲靖市","lng":103.78253936767578,"lat":25.5207576751709},{"bdId":"177","childs":[],"id":"5473ccd9b8ce043a64108ca2","pinyin":"wen shan zhuang zu miao zu zi zhi zhou","name":"文山壮族苗族自治州","lng":104.24629211425781,"lat":23.374086380004883},{"bdId":"108","childs":[],"id":"546f2dadb8ce0440eddb2dc2","pinyin":"pu er shi","name":"普洱市","lng":100.97122192382813,"lat":22.783462524414063},{"bdId":"109","childs":[],"id":"547bcef9b8ce040bfde631b9","pinyin":"xi shuang ban na dai zu zi zhi zhou","name":"西双版纳傣族自治州","lng":100.80303955078125,"lat":22.00943374633789},{"bdId":"106","childs":[],"id":"5473ccd1b8ce043a64108ae1","pinyin":"yu xi shi","name":"玉溪市","lng":102.5450668334961,"lat":24.370447158813477},{"bdId":"336","childs":[],"id":"5473ccd1b8ce043a64108ae2","pinyin":"zhao tong shi","name":"昭通市","lng":103.72502136230469,"lat":27.340633392333984}],"id":"","pinyin":"yun nan sheng","name":"云南省","lng":0.0,"lat":0.0},{"bdId":"31","childs":[{"bdId":"179","childs":[],"id":"547aec01b8ce043deccfee29","pinyin":"hang zhou shi","name":"杭州市","lng":120.21937561035156,"lat":30.259244918823242},{"bdId":"294","childs":[],"id":"546f2dacb8ce0440eddb2cbe","pinyin":"hu zhou shi","name":"湖州市","lng":120.13724517822266,"lat":30.877925872802734},{"bdId":"334","childs":[],"id":"547aec01b8ce043deccfee25","pinyin":"jia xing shi","name":"嘉兴市","lng":120.76042938232422,"lat":30.77399253845215},{"bdId":"333","childs":[],"id":"5473ccc6b8ce043a64108829","pinyin":"jin hua shi","name":"金华市","lng":119.65257263183594,"lat":29.1028995513916},{"bdId":"243","childs":[],"id":"5473cce0b8ce043a64108dbf","pinyin":"qu zhou shi","name":"衢州市","lng":118.87583923339844,"lat":28.956911087036133},{"bdId":"292","childs":[],"id":"5473cce0b8ce043a64108dbe","pinyin":"li shui shi","name":"丽水市","lng":119.92957305908203,"lat":28.456298828125},{"bdId":"180","childs":[],"id":"5473cce0b8ce043a64108dc8","pinyin":"ning bo shi","name":"宁波市","lng":121.5790023803711,"lat":29.8852596282959},{"bdId":"293","childs":[],"id":"5473cce0b8ce043a64108dbd","pinyin":"shao xing shi","name":"绍兴市","lng":120.59246826171875,"lat":30.002365112304688},{"bdId":"244","childs":[],"id":"546f2dacb8ce0440eddb2cbf","pinyin":"tai zhou shi","name":"台州市","lng":121.44061279296875,"lat":28.668283462524414},{"bdId":"178","childs":[],"id":"5473cce0b8ce043a64108dc1","pinyin":"wen zhou shi","name":"温州市","lng":120.69063568115234,"lat":28.002838134765625},{"bdId":"245","childs":[],"id":"5473cce0b8ce043a64108dc5","pinyin":"zhou shan shi","name":"舟山市","lng":122.16986846923828,"lat":30.0360107421875}],"id":"","pinyin":"zhe jiang sheng","name":"浙江省","lng":0.0,"lat":0.0},{"bdId":"2912","childs":[],"id":"5473ccd7b8ce043a64108c45","pinyin":"xiang gang te bie xing zheng qu","name":"香港特别行政区","lng":114.18612670898438,"lat":22.29358673095703},{"bdId":"2911","childs":[],"id":"5473cccbb8ce043a64108941","pinyin":"ao men te bie xing zheng qu","name":"澳门特别行政区","lng":113.5575180053711,"lat":22.204118728637695}]